NORAD_CAT_ID,OBJECT_NAME,OBJECT_TYPE,EPOCH,MEAN_MOTION,ECCENTRICITY,INCLINATION,RA_OF_ASC_NODE,ARG_OF_PERICENTER,MEAN_ANOMALY,BSTAR,MEAN_MOTION_DOT,MEAN_MOTION_DDOT,TLE_LINE0,TLE_LINE1,TLE_LINE2,SEMIMAJOR_AXIS,PERIOD,APOGEE,PERIGEE,DECAYED
54808.0,STARLINK-5413,PAYLOAD,2023-11-14 10:32:42,15.08843461,0.0001494,53.2155,213.2568,88.5685,271.5478,0.00017139,2.441e-05,0.0,0 STARLINK-5413,1 54808U 22175BC  23318.43937534  .00002441  00000-0  17139-3 0  9992,2 54808  53.2155 213.2568 0001494  88.5685 271.5478 15.08843461 52587,6917.87,95.437,540.768,538.701,0.0
54808.0,STARLINK-5413,PAYLOAD,2023-11-14 16:54:14,15.08842388,0.0001567,53.2152,212.0693,86.4775,273.6396,0.00013818,1.912e-05,0.0,0 STARLINK-5413,1 54808U 22175BC  23318.70433620  .00001912  00000-0  13818-3 0  9991,2 54808  53.2152 212.0693 0001567  86.4775 273.6396 15.08842388 50462,6917.873,95.437,540.822,538.654,0.0
54808.0,STARLINK-5413,PAYLOAD,2023-11-14 23:15:47,15.08845447,0.0001564,53.2153,210.8799,86.4039,273.7132,0.00017533,2.504e-05,0.0,0 STARLINK-5413,1 54808U 22175BC  23318.96929510  .00002504  00000-0  17533-3 0  9993,2 54808  53.2153 210.8799 0001564  86.4039 273.7132 15.08845447 52668,6917.864,95.437,540.811,538.647,0.0
54808.0,STARLINK-5413,PAYLOAD,2023-11-15 02:26:33,15.08848333,0.0001608,53.2152,210.285,86.2006,273.917,0.0001604,2.266e-05,0.0,0 STARLINK-5413,1 54808U 22175BC  23319.10177357  .00002266  00000-0  16040-3 0  9991,2 54808  53.2152 210.2850 0001608  86.2006 273.9170 15.08848333 52683,6917.855,95.437,540.832,538.608,0.0
54808.0,STARLINK-5413,PAYLOAD,2023-11-15 23:06:33,15.08853613,0.0001579,53.2144,206.4173,92.915,267.2023,0.00024821,3.666e-05,0.0,0 STARLINK-5413,1 54808U 22175BC  23319.96288813  .00003666  00000-0  24821-3 0  9996,2 54808  53.2144 206.4173 0001579  92.9150 267.2023 15.08853613 52815,6917.839,95.437,540.796,538.611,0.0
54808.0,STARLINK-5413,PAYLOAD,2023-11-16 16:35:48,15.08829391,0.0001621,53.2173,203.1457,104.0167,256.1005,-3.2189e-06,-3.39e-06,0.0,0 STARLINK-5413,1 54808U 22175BC  23320.69153823 -.00000339  00000-0 -32189-5 0  9994,2 54808  53.2173 203.1457 0001621 104.0167 256.1005 15.08829391 50762,6917.913,95.438,540.899,538.656,0.0
54808.0,STARLINK-5413,PAYLOAD,2023-11-16 22:57:20,15.08841271,0.000141,53.2143,201.9585,89.7896,270.3257,5.6028e-05,6.04e-06,0.0,0 STARLINK-5413,1 54808U 22175BC  23320.95649288  .00000604  00000-0  56028-4 0  9998,2 54808  53.2143 201.9585 0001410  89.7896 270.3257 15.08841271 52963,6917.877,95.437,540.717,538.766,0.0
54808.0,STARLINK-5413,PAYLOAD,2023-11-17 02:08:07,15.08843504,0.0001418,53.2139,201.3626,91.6923,268.4232,8.8364e-05,1.119e-05,0.0,0 STARLINK-5413,1 54808U 22175BC  23321.08897156  .00001119  00000-0  88364-4 0  9992,2 54808  53.2139 201.3626 0001418  91.6923 268.4232 15.08843504 50824,6917.87,95.437,540.716,538.754,0.0
54808.0,STARLINK-5413,PAYLOAD,2023-11-17 22:48:09,15.08813205,0.0001349,53.2133,197.4951,88.0526,272.0621,0.0006138,9.487e-05,0.0,0 STARLINK-5413,1 54808U 22175BC  23321.95010863  .00009487  00000-0  61380-3 0  9994,2 54808  53.2133 197.4951 0001349  88.0526 272.0621 15.08813205 53119,6917.962,95.439,540.761,538.894,0.0
54808.0,STARLINK-5413,PAYLOAD,2023-11-18 16:17:23,15.08836886,0.0001293,53.216,194.2239,91.478,268.636,6.4984e-05,7.46e-06,0.0,0 STARLINK-5413,1 54808U 22175BC  23322.67874239  .00000746  00000-0  64984-4 0  9992,2 54808  53.2160 194.2239 0001293  91.4780 268.6360 15.08836886 51064,6917.89,95.438,540.649,538.86,0.0
54808.0,STARLINK-5413,PAYLOAD,2023-11-19 08:11:14,15.0883911,0.0001389,53.218,191.2502,88.1303,271.9848,0.00011775,1.587e-05,0.0,0 STARLINK-5413,1 54808U 22175BC  23323.34114124  .00001587  00000-0  11775-3 0  9990,2 54808  53.2180 191.2502 0001389  88.1303 271.9848 15.08839110 53328,6917.883,95.438,540.709,538.787,0.0
54808.0,STARLINK-5413,PAYLOAD,2023-11-19 19:18:56,15.08838346,0.0001417,53.2181,189.1712,96.2766,263.8388,0.00013283,1.827e-05,0.0,0 STARLINK-5413,1 54808U 22175BC  23323.80482255  .00001827  00000-0  13283-3 0  9997,2 54808  53.2181 189.1712 0001417  96.2766 263.8388 15.08838346 51230,6917.885,95.438,540.731,538.77,0.0
54808.0,STARLINK-5413,PAYLOAD,2023-11-19 22:29:42,15.08839224,0.0001358,53.2168,188.5769,99.0307,261.0839,0.00013456,1.854e-05,0.0,0 STARLINK-5413,1 54808U 22175BC  23323.93730127  .00001854  00000-0  13456-3 0  9997,2 54808  53.2168 188.5769 0001358  99.0307 261.0839 15.08839224 53415,6917.883,95.438,540.687,538.808,0.0
54808.0,STARLINK-5413,PAYLOAD,2023-11-20 08:02:01,15.08840069,0.0001344,53.2162,186.792,94.5108,265.6037,0.00013236,1.819e-05,0.0,0 STARLINK-5413,1 54808U 22175BC  23324.33474182  .00001819  00000-0  13236-3 0  9995,2 54808  53.2162 186.7920 0001344  94.5108 265.6037 15.08840069 53477,6917.88,95.438,540.675,538.815,0.0
54808.0,STARLINK-5413,PAYLOAD,2023-11-20 20:45:06,15.08841104,0.0001413,53.2156,184.4134,88.5772,271.5382,8.9757e-05,1.141e-05,0.0,0 STARLINK-5413,1 54808U 22175BC  23324.86466228  .00001141  00000-0  89757-4 0  9995,2 54808  53.2156 184.4134 0001413  88.5772 271.5382 15.08841104 53558,6917.877,95.437,540.72,538.765,0.0
54808.0,STARLINK-5413,PAYLOAD,2023-11-21 01:31:15,15.08844408,0.0001401,53.2153,183.521,87.2071,272.9081,0.00010827,1.436e-05,0.0,0 STARLINK-5413,1 54808U 22175BC  23325.06337939  .00001436  00000-0  10827-3 0  9992,2 54808  53.2153 183.5210 0001401  87.2071 272.9081 15.08844408 51420,6917.867,95.437,540.701,538.763,0.0
54808.0,STARLINK-5413,PAYLOAD,2023-11-21 19:00:30,15.08840113,0.0001524,53.2154,180.2491,84.9226,275.194,5.5985e-05,6.03e-06,0.0,0 STARLINK-5413,1 54808U 22175BC  23325.79202503  .00000603  00000-0  55985-4 0  9990,2 54808  53.2154 180.2491 0001524  84.9226 275.1940 15.08840113 51538,6917.88,95.438,540.799,538.691,0.0
54808.0,STARLINK-5413,PAYLOAD,2023-11-21 20:35:53,15.08843196,0.0001363,53.2151,179.9514,85.9843,274.1305,5.9325e-05,6.56e-06,0.0,0 STARLINK-5413,1 54808U 22175BC  23325.85826295  .00000656  00000-0  59325-4 0  9997,2 54808  53.2151 179.9514 0001363  85.9843 274.1305 15.08843196 53702,6917.871,95.437,540.679,538.793,0.0
54808.0,STARLINK-5413,PAYLOAD,2023-11-21 23:46:39,15.08851379,0.0001388,53.2149,179.356,84.4217,275.6933,0.00011569,1.554e-05,0.0,0 STARLINK-5413,1 54808U 22175BC  23325.99073617  .00001554  00000-0  11569-3 0  9999,2 54808  53.2149 179.3560 0001388  84.4217 275.6933 15.08851379 51567,6917.846,95.437,540.671,538.75,0.0
54808.0,STARLINK-5413,PAYLOAD,2023-11-22 14:05:08,15.08842917,0.0001559,53.2143,176.6807,93.1362,266.9809,0.00012658,1.727e-05,0.0,0 STARLINK-5413,1 54808U 22175BC  23326.58690111  .00001727  00000-0  12658-3 0  9991,2 54808  53.2143 176.6807 0001559  93.1362 266.9809 15.08842917 53816,6917.871,95.437,540.815,538.658,0.0
54808.0,STARLINK-5413,PAYLOAD,2023-11-22 18:51:17,15.08844316,0.0001541,53.2144,175.7893,97.5801,262.5366,0.00013237,1.82e-05,0.0,0 STARLINK-5413,1 54808U 22175BC  23326.78561981  .00001820  00000-0  13237-3 0  9993,2 54808  53.2144 175.7893 0001541  97.5801 262.5366 15.08844316 51687,6917.867,95.437,540.798,538.666,0.0
54808.0,STARLINK-5413,PAYLOAD,2023-11-22 20:26:40,15.08845776,0.0001573,53.2145,175.4919,94.3351,265.782,0.00013789,1.908e-05,0.0,0 STARLINK-5413,1 54808U 22175BC  23326.85185944  .00001908  00000-0  13789-3 0  9991,2 54808  53.2145 175.4919 0001573  94.3351 265.7820 15.08845776 53856,6917.863,95.437,540.816,538.64,0.0
54808.0,STARLINK-5413,PAYLOAD,2023-11-23 13:55:55,15.08837496,0.0001741,53.2142,172.2231,76.3163,283.8023,9.2067e-05,1.177e-05,0.0,0 STARLINK-5413,1 54808U 22175BC  23327.58050507  .00001177  00000-0  92067-4 0  9993,2 54808  53.2142 172.2231 0001741  76.3163 283.8023 15.08837496 53961,6917.888,95.438,540.957,538.549,0.0
54808.0,STARLINK-5413,PAYLOAD,2023-11-23 18:42:05,15.08839308,0.0001557,53.215,171.3284,107.5469,252.5694,-6.6648e-05,-1.349e-05,0.0,0 STARLINK-5413,1 54808U 22175BC  23327.77922615 -.00001349  00000-0 -66648-4 0  9991,2 54808  53.2150 171.3284 0001557 107.5469 252.5694 15.08839308 51834,6917.883,95.438,540.825,538.67,0.0
54808.0,STARLINK-5413,PAYLOAD,2023-11-23 20:17:28,15.08838238,0.0001529,53.2146,171.031,99.1286,260.9879,-5.9486e-05,-1.235e-05,0.0,0 STARLINK-5413,1 54808U 22175BC  23327.84546679 -.00001235  00000-0 -59486-4 0  9997,2 54808  53.2146 171.0310 0001529  99.1286 260.9879 15.08838238 54009,6917.886,95.438,540.809,538.693,0.0
54808.0,STARLINK-5413,PAYLOAD,2023-11-24 13:46:42,15.08850146,0.0001938,53.2158,167.7582,110.3665,249.7536,-0.00017235,-3.031e-05,0.0,0 STARLINK-5413,1 54808U 22175BC  23328.57410532 -.00003031  00000-0 -17235-3 0  9997,2 54808  53.2158 167.7582 0001938 110.3665 249.7536 15.08850146 54115,6917.849,95.437,541.055,538.374,0.0
54808.0,STARLINK-5413,PAYLOAD,2023-11-24 20:08:15,15.08842461,0.0001476,53.2155,166.569,95.8764,264.2397,1.2653e-06,-2.68e-06,0.0,0 STARLINK-5413,1 54808U 22175BC  23328.83906426 -.00000268  00000-0  12653-5 0  9997,2 54808  53.2155 166.5690 0001476  95.8764 264.2397 15.08842461 51994,6917.873,95.437,540.759,538.717,0.0
54808.0,STARLINK-5413,PAYLOAD,2023-11-25 19:59:01,15.08843829,0.0001574,53.2156,162.1091,98.3037,261.8134,0.00016936,2.409e-05,0.0,0 STARLINK-5413,1 54808U 22175BC  23329.83266081  .00002409  00000-0  16936-3 0  9998,2 54808  53.2156 162.1091 0001574  98.3037 261.8134 15.08843829 54301,6917.869,95.437,540.823,538.645,0.0
54808.0,STARLINK-5413,PAYLOAD,2023-11-26 13:28:16,15.08842762,0.0001749,53.217,158.8381,91.9383,268.1809,6.8127e-05,7.96e-06,0.0,0 STARLINK-5413,1 54808U 22175BC  23330.56130491  .00000796  00000-0  68127-4 0  9992,2 54808  53.2170 158.8381 0001749  91.9383 268.1809 15.08842762 54414,6917.872,95.437,540.947,538.527,0.0
54808.0,STARLINK-5413,PAYLOAD,2023-11-26 18:14:26,15.08840625,0.0001828,53.2168,157.9464,117.4579,242.6599,5.295e-05,5.55e-06,0.0,0 STARLINK-5413,1 54808U 22175BC  23330.76002449  .00000555  00000-0  52950-4 0  9995,2 54808  53.2168 157.9464 0001828 117.4579 242.6599 15.08840625 52284,6917.878,95.438,541.008,538.479,0.0
